[
    {
        "Altitude(m)": 556376.449577988,
        "Argument of Periapsis(deg)": 0.0,
        "Eccentricity": 0.0,
        "Inclination(deg)": 53.0,
        "Latitude(deg)": 37.24559071471091,
        "Longitude(deg)": -114.70479948528218,
        "Mean Anomaly(deg)": 130.90910000000005,
        "RAAN(deg)": 200.0,
        "Satellite Name": "Starlink Shell 1 888",
        "Satellite Number": 888,
        "Semi-Major Axis(m)": 6931778.249405717,
        "Time(s)": 0
    },
    {
        "Altitude(m)": 556293.3199931775,
        "Argument of Periapsis(deg)": 0.00034857847951123687,
        "Eccentricity": 0.0,
        "Inclination(deg)": 53.0,
        "Latitude(deg)": 36.83136732798338,
        "Longitude(deg)": -114.1563390720282,
        "Mean Anomaly(deg)": 131.53593120355674,
        "RAAN(deg)": 199.99948122992257,
        "Satellite Name": "Starlink Shell 1 888",
        "Satellite Number": 888,
        "Semi-Major Axis(m)": 6931778.249405717,
        "Time(s)": 10
    },
    {
        "Altitude(m)": 556210.3865637059,
        "Argument of Periapsis(deg)": 0.0006971569590224737,
        "Eccentricity": 0.0,
        "Inclination(deg)": 53.0,
        "Latitude(deg)": 36.414220858641734,
        "Longitude(deg)": -113.61421928938927,
        "Mean Anomaly(deg)": 132.16276240711346,
        "RAAN(deg)": 199.99896245984505,
        "Satellite Name": "Starlink Shell 1 888",
        "Satellite Number": 888,
        "Semi-Major Axis(m)": 6931778.249405717,
        "Time(s)": 20
    },
    {
        "Altitude(m)": 556127.7048481184,
        "Argument of Periapsis(deg)": 0.0010457354385337105,
        "Eccentricity": 0.0,
        "Inclination(deg)": 53.0,
        "Latitude(deg)": 35.99422491313178,
        "Longitude(deg)": -113.07832035915025,
        "Mean Anomaly(deg)": 132.78959361067012,
        "RAAN(deg)": 199.9984436897676,
        "Satellite Name": "Starlink Shell 1 888",
        "Satellite Number": 888,
        "Semi-Major Axis(m)": 6931778.249405717,
        "Time(s)": 30
    },
    {
        "Altitude(m)": 556045.3304858974,
        "Argument of Periapsis(deg)": 0.0013943139180449475,
        "Eccentricity": 0.0,
        "Inclination(deg)": 53.0,
        "Latitude(deg)": 35.57145145811422,
        "Longitude(deg)": -112.54852242781296,
        "Mean Anomaly(deg)": 133.41642481422684,
        "RAAN(deg)": 199.9979249196901,
        "Satellite Name": "Starlink Shell 1 888",
        "Satellite Number": 888,
        "Semi-Major Axis(m)": 6931778.249405717,
        "Time(s)": 40
    },
    {
        "Altitude(m)": 555963.3191688466,
        "Argument of Periapsis(deg)": 0.0017428923975561844,
        "Eccentricity": 0.0,
        "Inclination(deg)": 53.0,
        "Latitude(deg)": 35.14597085026792,
        "Longitude(deg)": -112.02470668948212,
        "Mean Anomaly(deg)": 134.0432560177836,
        "RAAN(deg)": 199.9974061496126,
        "Satellite Name": "Starlink Shell 1 888",
        "Satellite Number": 888,
        "Semi-Major Axis(m)": 6931778.249405717,
        "Time(s)": 50
    },
    {
        "Altitude(m)": 555881.7266123854,
        "Argument of Periapsis(deg)": 0.002091470877067421,
        "Eccentricity": 0.0,
        "Inclination(deg)": 53.0,
        "Latitude(deg)": 34.717851866919816,
        "Longitude(deg)": -111.50675498558904,
        "Mean Anomaly(deg)": 134.6700872213403,
        "RAAN(deg)": 199.99688737953517,
        "Satellite Name": "Starlink Shell 1 888",
        "Satellite Number": 888,
        "Semi-Major Axis(m)": 6931778.249405717,
        "Time(s)": 60
    },
    {
        "Altitude(m)": 555800.6085267956,
        "Argument of Periapsis(deg)": 0.0024400493565786582,
        "Eccentricity": 0.0,
        "Inclination(deg)": 53.0,
        "Latitude(deg)": 34.2871617373584,
        "Longitude(deg)": -110.99454939489682,
        "Mean Anomaly(deg)": 135.29691842489703,
        "RAAN(deg)": 199.9963686094577,
        "Satellite Name": "Starlink Shell 1 888",
        "Satellite Number": 888,
        "Semi-Major Axis(m)": 6931778.249405717,
        "Time(s)": 70
    },
    {
        "Altitude(m)": 555720.0205884244,
        "Argument of Periapsis(deg)": 0.002788627836089895,
        "Eccentricity": 0.0,
        "Inclination(deg)": 53.0,
        "Latitude(deg)": 33.853966174697995,
        "Longitude(deg)": -110.48797332721307,
        "Mean Anomaly(deg)": 135.92374962845372,
        "RAAN(deg)": 199.9958498393802,
        "Satellite Name": "Starlink Shell 1 888",
        "Satellite Number": 888,
        "Semi-Major Axis(m)": 6931778.249405717,
        "Time(s)": 80
    },
    {
        "Altitude(m)": 555640.0184108542,
        "Argument of Periapsis(deg)": 0.0031372063156011316,
        "Eccentricity": 0.0,
        "Inclination(deg)": 53.0,
        "Latitude(deg)": 33.41832940816749,
        "Longitude(deg)": -109.98691109560477,
        "Mean Anomaly(deg)": 136.55058083201044,
        "RAAN(deg)": 199.99533106930275,
        "Satellite Name": "Starlink Shell 1 888",
        "Satellite Number": 888,
        "Semi-Major Axis(m)": 6931778.249405717,
        "Time(s)": 90
    },
    {
        "Altitude(m)": 555560.6575160504,
        "Argument of Periapsis(deg)": 0.0034857847951123688,
        "Eccentricity": 0.0,
        "Inclination(deg)": 53.0,
        "Latitude(deg)": 32.98031421571382,
        "Longitude(deg)": -109.49124748050707,
        "Mean Anomaly(deg)": 137.17741203556716,
        "RAAN(deg)": 199.9948122992253,
        "Satellite Name": "Starlink Shell 1 888",
        "Satellite Number": 888,
        "Semi-Major Axis(m)": 6931778.249405717,
        "Time(s)": 100
    },
    {
        "Altitude(m)": 555481.9933055345,
        "Argument of Periapsis(deg)": 0.003834363274623606,
        "Eccentricity": 0.0,
        "Inclination(deg)": 53.0,
        "Latitude(deg)": 32.539981956817705,
        "Longitude(deg)": -109.000868799097,
        "Mean Anomaly(deg)": 137.8042432391239,
        "RAAN(deg)": 199.9942935291478,
        "Satellite Name": "Starlink Shell 1 888",
        "Satellite Number": 888,
        "Semi-Major Axis(m)": 6931778.249405717,
        "Time(s)": 110
    },
    {
        "Altitude(m)": 555404.0810315383,
        "Argument of Periapsis(deg)": 0.004182941754134842,
        "Eccentricity": 0.0,
        "Inclination(deg)": 53.0,
        "Latitude(deg)": 32.097392605426144,
        "Longitude(deg)": -108.51566245466877,
        "Mean Anomaly(deg)": 138.43107444268057,
        "RAAN(deg)": 199.99377475907033,
        "Satellite Name": "Starlink Shell 1 888",
        "Satellite Number": 888,
        "Semi-Major Axis(m)": 6931778.249405717,
        "Time(s)": 120
    },
    {
        "Altitude(m)": 555326.9757681974,
        "Argument of Periapsis(deg)": 0.004531520233646079,
        "Eccentricity": 0.0,
        "Inclination(deg)": 53.0,
        "Latitude(deg)": 31.652604782918523,
        "Longitude(deg)": -108.03551647934347,
        "Mean Anomaly(deg)": 139.05790564623732,
        "RAAN(deg)": 199.9932559889929,
        "Satellite Name": "Starlink Shell 1 888",
        "Satellite Number": 888,
        "Semi-Major Axis(m)": 6931778.249405717,
        "Time(s)": 130
    },
    {
        "Altitude(m)": 555250.7323827954,
        "Argument of Periapsis(deg)": 0.0048800987131573164,
        "Eccentricity": 0.0,
        "Inclination(deg)": 53.0,
        "Latitude(deg)": 31.205675791030707,
        "Longitude(deg)": -107.56032058342332,
        "Mean Anomaly(deg)": 139.68473684979398,
        "RAAN(deg)": 199.99273721891538,
        "Satellite Name": "Starlink Shell 1 888",
        "Satellite Number": 888,
        "Semi-Major Axis(m)": 6931778.249405717,
        "Time(s)": 140
    },
    {
        "Altitude(m)": 555175.4055070608,
        "Argument of Periapsis(deg)": 0.005228677192668553,
        "Eccentricity": 0.0,
        "Inclination(deg)": 53.0,
        "Latitude(deg)": 30.756661644665833,
        "Longitude(deg)": -107.0899656860666,
        "Mean Anomaly(deg)": 140.31156805335073,
        "RAAN(deg)": 199.9922184488379,
        "Satellite Name": "Starlink Shell 1 888",
        "Satellite Number": 888,
        "Semi-Major Axis(m)": 6931778.249405717,
        "Time(s)": 150
    },
    {
        "Altitude(m)": 555101.0495085226,
        "Argument of Periapsis(deg)": 0.00557725567217979,
        "Eccentricity": 0.0,
        "Inclination(deg)": 53.0,
        "Latitude(deg)": 30.30561710453124,
        "Longitude(deg)": -106.6243434405543,
        "Mean Anomaly(deg)": 140.93839925690747,
        "RAAN(deg)": 199.99169967876043,
        "Satellite Name": "Starlink Shell 1 888",
        "Satellite Number": 888,
        "Semi-Major Axis(m)": 6931778.249405717,
        "Time(s)": 160
    },
    {
        "Altitude(m)": 555027.7184619607,
        "Argument of Periapsis(deg)": 0.0059258341516910265,
        "Eccentricity": 0.0,
        "Inclination(deg)": 53.0,
        "Latitude(deg)": 29.8525957095473,
        "Longitude(deg)": -106.16334726739855,
        "Mean Anomaly(deg)": 141.56523046046414,
        "RAAN(deg)": 199.99118090868294,
        "Satellite Name": "Starlink Shell 1 888",
        "Satellite Number": 888,
        "Semi-Major Axis(m)": 6931778.249405717,
        "Time(s)": 170
    },
    {
        "Altitude(m)": 554955.4661209735,
        "Argument of Periapsis(deg)": 0.006274412631202263,
        "Eccentricity": 0.0,
        "Inclination(deg)": 53.0,
        "Latitude(deg)": 29.397649808976794,
        "Longitude(deg)": -105.70687186990891,
        "Mean Anomaly(deg)": 142.1920616640209,
        "RAAN(deg)": 199.9906621386055,
        "Satellite Name": "Starlink Shell 1 888",
        "Satellite Number": 888,
        "Semi-Major Axis(m)": 6931778.249405717,
        "Time(s)": 180
    }
]